NORAD_CAT_ID,OBJECT_NAME,OBJECT_TYPE,EPOCH,MEAN_MOTION,ECCENTRICITY,INCLINATION,RA_OF_ASC_NODE,ARG_OF_PERICENTER,MEAN_ANOMALY,BSTAR,MEAN_MOTION_DOT,MEAN_MOTION_DDOT,TLE_LINE0,TLE_LINE1,TLE_LINE2,SEMIMAJOR_AXIS,PERIOD,APOGEE,PERIGEE,DECAYED
52459.0,STARLINK-3856,PAYLOAD,2024-03-17 04:41:37,15.08852815,0.0006254,53.2199,62.5326,163.7463,196.3731,0.00018374,2.638e-05,0.0,0 STARLINK-3856,1 52459U 22049J   24077.19557045  .00002638  00000-0  18374-3 0  9993,2 52459  53.2199  62.5326 0006254 163.7463 196.3731 15.08852815103330,6917.841,95.437,544.033,535.38,0.0
52459.0,STARLINK-3856,PAYLOAD,2024-03-17 14:00:01,15.08848488,0.0001223,53.2161,60.7811,95.1705,212.3215,-0.0012138,-0.00019558,0.0,0 STARLINK-3856,1 52459U 22049J   24077.58334491 -.00019558  00000-0 -12138-2 0  9996,2 52459  53.2161  60.7811 0001223  95.1705 212.3215 15.08848488103399,6917.854,95.437,540.565,538.873,0.0
52459.0,STARLINK-3856,PAYLOAD,2024-03-17 16:00:00,15.08841711,0.0001251,53.2162,60.4065,99.6798,300.7132,-0.00022187,-3.817e-05,0.0,0 STARLINK-3856,1 52459U 22049J   24077.66667824 -.00003817  00000-0 -22187-3 0  9991,2 52459  53.2162  60.4065 0001251  99.6798 300.7132 15.08841711  5797,6917.875,95.437,540.606,538.875,0.0
52459.0,STARLINK-3856,PAYLOAD,2024-03-18 06:07:48,15.08844517,0.0001382,53.2184,57.76,92.9759,267.1392,8.5961e-05,1.081e-05,0.0,0 STARLINK-3856,1 52459U 22049J   24078.25542638  .00001081  00000-0  85961-4 0  9991,2 52459  53.2184  57.7600 0001382  92.9759 267.1392 15.08844517103490,6917.867,95.437,540.688,538.776,0.0
52459.0,STARLINK-3856,PAYLOAD,2024-03-18 22:01:40,15.08839824,0.0001386,53.2176,54.7933,89.1245,270.9906,0.00012164,1.648e-05,0.0,0 STARLINK-3856,1 52459U 22049J   24078.91782862  .00001648  00000-0  12164-3 0  9992,2 52459  53.2176  54.7933 0001386  89.1245 270.9906 15.08839824103431,6917.881,95.438,540.705,538.787,0.0
52459.0,STARLINK-3856,PAYLOAD,2024-03-19 07:33:58,15.08852087,0.000145,53.2184,53.0057,95.178,264.9378,0.00014082,1.955e-05,0.0,0 STARLINK-3856,1 52459U 22049J   24079.31526139  .00001955  00000-0  14082-3 0  9992,2 52459  53.2184  53.0057 0001450  95.1780 264.9378 15.08852087103490,6917.843,95.437,540.712,538.705,0.0
52459.0,STARLINK-3856,PAYLOAD,2024-03-19 21:52:27,15.0884491,0.0001487,53.2178,50.3276,110.6433,249.4719,8.9214e-05,1.132e-05,0.0,0 STARLINK-3856,1 52459U 22049J   24079.91142461  .00001132  00000-0  89214-4 0  9997,2 52459  53.2178  50.3276 0001487 110.6433 249.4719 15.08844910103745,6917.865,95.437,540.759,538.702,0.0
52459.0,STARLINK-3856,PAYLOAD,2024-03-20 04:13:59,15.08849058,0.0001685,53.2179,49.1416,80.6327,279.4856,0.00010652,1.408e-05,0.0,0 STARLINK-3856,1 52459U 22049J   24080.17638230  .00001408  00000-0  10652-3 0  9996,2 52459  53.2179  49.1416 0001685  80.6327 279.4856 15.08849058103626,6917.853,95.437,540.883,538.552,0.0
52459.0,STARLINK-3856,PAYLOAD,2024-03-21 04:04:41,15.08913672,0.000147,53.2184,44.6771,119.4575,240.6564,0.00059163,9.159e-05,0.0,0 STARLINK-3856,1 52459U 22049J   24081.16992961  .00009159  00000-0  59163-3 0  9991,2 52459  53.2184  44.6771 0001470 119.4575 240.6564 15.08913672103938,6917.655,95.433,540.537,538.503,0.0
52459.0,STARLINK-3856,PAYLOAD,2024-03-21 13:37:05,15.08827528,9.46e-05,53.218,42.8953,122.2671,237.8413,-0.00031149,-5.24e-05,0.0,0 STARLINK-3856,1 52459U 22049J   24081.56742270 -.00005240  00000-0 -31149-3 0  9994,2 52459  53.2180  42.8953 0000946 122.2671 237.8413 15.08827528103836,6917.919,95.438,540.438,539.129,0.0
52459.0,STARLINK-3856,PAYLOAD,2024-03-22 03:55:33,15.08832443,0.0001736,53.2185,40.2139,111.3767,248.741,-0.00020566,-3.559e-05,0.0,0 STARLINK-3856,1 52459U 22049J   24082.16358583 -.00003559  00000-0 -20566-3 0  9993,2 52459  53.2185  40.2139 0001736 111.3767 248.7410 15.08832443104080,6917.903,95.438,540.969,538.568,0.0
52459.0,STARLINK-3856,PAYLOAD,2024-03-22 07:06:19,15.08841322,0.0001487,53.2173,39.6223,110.2779,249.8373,-4.3287e-05,-9.77e-06,0.0,0 STARLINK-3856,1 52459U 22049J   24082.29605859 -.00000977  00000-0 -43287-4 0  9995,2 52459  53.2173  39.6223 0001487 110.2779 249.8373 15.08841322104106,6917.876,95.437,540.77,538.713,0.0
52459.0,STARLINK-3856,PAYLOAD,2024-03-22 21:24:47,15.08851063,0.0001441,53.2187,36.9422,111.1422,248.9724,-0.00069986,-0.00011412,0.0,0 STARLINK-3856,1 52459U 22049J   24082.89221975 -.00011412  00000-0 -69986-3 0  9993,2 52459  53.2187  36.9422 0001441 111.1422 248.9724 15.08851063104032,6917.847,95.437,540.708,538.715,0.0
52459.0,STARLINK-3856,PAYLOAD,2024-03-23 21:15:35,15.0883588,0.0001531,53.2187,32.4837,97.1004,263.0163,0.00036468,5.52e-05,0.0,0 STARLINK-3856,1 52459U 22049J   24083.88583199  .00005520  00000-0  36468-3 0  9992,2 52459  53.2187  32.4837 0001531  97.1004 263.0163 15.08835880104340,6917.893,95.438,540.817,538.699,0.0
52459.0,STARLINK-3856,PAYLOAD,2024-03-24 05:12:30,15.08861455,0.0001872,53.2184,30.9997,121.2297,238.8879,0.00059277,9.164e-05,0.0,0 STARLINK-3856,1 52459U 22049J   24084.21702180  .00009164  00000-0  59277-3 0  9994,2 52459  53.2184  30.9997 0001872 121.2297 238.8879 15.08861455104394,6917.815,95.436,540.975,538.385,0.0
52459.0,STARLINK-3856,PAYLOAD,2024-03-25 05:03:18,15.08835689,0.0001569,53.2188,26.5397,96.7697,263.3473,0.00010766,1.426e-05,0.0,0 STARLINK-3856,1 52459U 22049J   24085.21063537  .00001426  00000-0  10766-3 0  9994,2 52459  53.2188  26.5397 0001569  96.7697 263.3473 15.08835689104546,6917.894,95.438,540.844,538.673,0.0
52459.0,STARLINK-3856,PAYLOAD,2024-03-25 13:00:15,15.08818428,0.0001806,53.2186,25.0509,89.3363,270.7836,-0.00011199,-2.069e-05,0.0,0 STARLINK-3856,1 52459U 22049J   24085.54184357 -.00002069  00000-0 -11199-3 0  9991,2 52459  53.2186  25.0509 0001806  89.3363 270.7836 15.08818428104597,6917.946,95.439,541.061,538.562,0.0
52459.0,STARLINK-3856,PAYLOAD,2024-03-26 12:51:04,15.08806233,0.0001511,53.2188,20.5917,90.3781,269.7384,0.00055295,8.515e-05,0.0,0 STARLINK-3856,1 52459U 22049J   24086.53546736  .00008515  00000-0  55295-3 0  9999,2 52459  53.2188  20.5917 0001511  90.3781 269.7384 15.08806233104745,6917.984,95.44,540.894,538.803,0.0
52459.0,STARLINK-3856,PAYLOAD,2024-03-27 03:09:32,15.0884801,0.0001369,53.2182,17.9175,99.3103,260.8044,0.0010126,0.00015868,0.0,0 STARLINK-3856,1 52459U 22049J   24087.13162219  .00015868  00000-0  10126-2 0  9998,2 52459  53.2182  17.9175 0001369  99.3103 260.8044 15.08848010104837,6917.856,95.437,540.668,538.774,0.0
52459.0,STARLINK-3856,PAYLOAD,2024-03-27 12:41:49,15.08888762,0.0001178,53.2191,16.1321,111.6802,248.4316,0.0014426,0.00022776,0.0,0 STARLINK-3856,1 52459U 22049J   24087.52904210  .00022776  00000-0  14426-2 0  9999,2 52459  53.2191  16.1321 0001178 111.6802 248.4316 15.08888762104891,6917.731,95.434,540.411,538.781,0.0
52459.0,STARLINK-3856,PAYLOAD,2024-03-28 04:35:40,15.08840705,0.0001185,53.2188,13.1585,89.8243,270.2885,-0.00077366,-0.0001258,0.0,0 STARLINK-3856,1 52459U 22049J   24088.19144021 -.00012580  00000-0 -77366-3 0  9996,2 52459  53.2188  13.1585 0001185  89.8243 270.2885 15.08840705104999,6917.878,95.438,540.563,538.923,0.0
52459.0,STARLINK-3856,PAYLOAD,2024-03-28 12:32:36,15.08839894,0.0001081,53.2194,11.6724,96.0171,264.0945,-0.00037076,-6.183e-05,0.0,0 STARLINK-3856,1 52459U 22049J   24088.52264141 -.00006183  00000-0 -37076-3 0  9995,2 52459  53.2194  11.6724 0001081  96.0171 264.0945 15.08839894104882,6917.881,95.438,540.494,538.998,0.0
52459.0,STARLINK-3856,PAYLOAD,2024-03-28 22:04:54,15.08843057,8.37e-05,53.219,9.8885,82.0926,278.0161,-0.00027108,-4.6e-05,0.0,0 STARLINK-3856,1 52459U 22049J   24088.92007852 -.00004600  00000-0 -27108-3 0  9990,2 52459  53.2190   9.8885 0000837  82.0926 278.0161 15.08843057104944,6917.871,95.437,540.315,539.157,0.0
52459.0,STARLINK-3856,PAYLOAD,2024-03-29 01:15:40,15.08848324,0.0001253,53.2186,9.294,91.6858,268.4278,5.9872e-05,6.65e-06,0.0,0 STARLINK-3856,1 52459U 22049J   24089.05255668  .00000665  00000-0  59872-4 0  9994,2 52459  53.2186   9.2940 0001253  91.6858 268.4278 15.08848324105123,6917.855,95.437,540.587,538.853,0.0
52459.0,STARLINK-3856,PAYLOAD,2024-03-29 21:55:42,15.088445,0.0001018,53.2194,5.4267,85.5538,274.557,0.00038406,5.83e-05,0.0,0 STARLINK-3856,1 52459U 22049J   24089.91368118  .00005830  00000-0  38406-3 0  9992,2 52459  53.2194   5.4267 0001018  85.5538 274.5570 15.08844500105099,6917.867,95.437,540.436,539.027,0.0
52459.0,STARLINK-3856,PAYLOAD,2024-03-30 04:17:14,15.08853917,9.53e-05,53.2186,4.2384,98.2352,261.8749,0.00056979,8.795e-05,0.0,0 STARLINK-3856,1 52459U 22049J   24090.17863790  .00008795  00000-0  56979-3 0  9996,2 52459  53.2186   4.2384 0000953  98.2352 261.8749 15.08853917105290,6917.838,95.437,540.362,539.044,0.0
52459.0,STARLINK-3856,PAYLOAD,2024-03-30 21:46:29,15.0884267,0.0001362,53.2188,0.9667,115.6424,244.4709,0.00028135,4.193e-05,0.0,0 STARLINK-3856,1 52459U 22049J   24090.90728296  .00004193  00000-0  28135-3 0  9999,2 52459  53.2188   0.9667 0001362 115.6424 244.4709 15.08842670105408,6917.872,95.437,540.679,538.795,0.0
52459.0,STARLINK-3856,PAYLOAD,2024-03-31 10:29:34,15.08853281,0.0001095,53.2178,358.589,78.1511,281.9604,0.00065601,0.00010172,0.0,0 STARLINK-3856,1 52459U 22049J   24091.43720240  .00010172  00000-0  65601-3 0  9992,2 52459  53.2178 358.5890 0001095  78.1511 281.9604 15.08853281105321,6917.84,95.437,540.462,538.947,0.0
52459.0,STARLINK-3856,PAYLOAD,2024-03-31 21:37:16,15.08843463,0.0001127,53.2181,356.5082,94.4754,265.6367,0.00029343,4.386e-05,0.0,0 STARLINK-3856,1 52459U 22049J   24091.90088344  .00004386  00000-0  29343-3 0  9999,2 52459  53.2181 356.5082 0001127  94.4754 265.6367 15.08843463105395,6917.87,95.437,540.514,538.955,0.0
52459.0,STARLINK-3856,PAYLOAD,2024-04-01 00:48:02,15.08848252,9.21e-05,53.2175,355.9146,94.1489,265.9609,0.00030705,4.603e-05,0.0,0 STARLINK-3856,1 52459U 22049J   24092.03335977  .00004603  00000-0  30705-3 0  9997,2 52459  53.2175 355.9146 0000921  94.1489 265.9609 15.08848252105578,6917.855,95.437,540.357,539.083,0.0
